[{"OBJECT_NAME":"ALOS-2","OBJECT_ID":"2014-029A","EPOCH":"2026-03-09T22:07:16.177728","MEAN_MOTION":14.79502935,"ECCENTRICITY":0.00014489,"INCLINATION":97.9188,"RA_OF_ASC_NODE":167.5154,"ARG_OF_PERICENTER":94.7043,"MEAN_ANOMALY":265.4334,"EPHEMERIS_TYPE":0,"CLASSIFICATION_TYPE":"U","NORAD_CAT_ID":39766,"ELEMENT_SET_NO":999,"REV_AT_EPOCH":63690,"BSTAR":0.00010743863,"MEAN_MOTION_DOT":7.52e-6,"MEAN_MOTION_DDOT":0},{"OBJECT_NAME":"SL-16 DEB","OBJECT_ID":"1992-093ED","EPOCH":"2026-03-09T22:20:49.738272","MEAN_MOTION":14.83105755,"ECCENTRICITY":0.00397892,"INCLINATION":71.5066,"RA_OF_ASC_NODE":17.7297,"ARG_OF_PERICENTER":237.2775,"MEAN_ANOMALY":180.4051,"EPHEMERIS_TYPE":0,"CLASSIFICATION_TYPE":"U","NORAD_CAT_ID":22436,"ELEMENT_SET_NO":999,"REV_AT_EPOCH":75077,"BSTAR":0.0013947857,"MEAN_MOTION_DOT":0.00011488,"MEAN_MOTION_DDOT":0}]
